{
    "links": {
        "self": "http://www.neowsapp.com/rest/v1/neo/3609221?api_key=iIulBulltgU6a56xZRHN4H3l9WmuAYTsLGpBGhQ2"
    },
    "id": "3609221",
    "neo_reference_id": "3609221",
    "name": "(2012 SK50)",
    "designation": "2012 SK50",
    "nasa_jpl_url": "http://ssd.jpl.nasa.gov/sbdb.cgi?sstr=3609221",
    "absolute_magnitude_h": 24.8,
    "estimated_diameter": {
        "kilometers": {
            "estimated_diameter_min": 0.0291443905,
            "estimated_diameter_max": 0.0651688382
        },
        "meters": {
            "estimated_diameter_min": 29.1443904535,
            "estimated_diameter_max": 65.1688382168
        },
        "miles": {
            "estimated_diameter_min": 0.018109479,
            "estimated_diameter_max": 0.0404940262
        },
        "feet": {
            "estimated_diameter_min": 95.6180819754,
            "estimated_diameter_max": 213.8085311752
        }
    },
    "is_potentially_hazardous_asteroid": false,
    "close_approach_data": [
        {
            "close_approach_date": "2009-10-05",
            "close_approach_date_full": "2009-Oct-05 23:35",
            "epoch_date_close_approach": 1254785700000,
            "relative_velocity": {
                "kilometers_per_second": "10.3329454715",
                "kilometers_per_hour": "37198.6036975058",
                "miles_per_hour": "23113.7657252641"
            },
            "miss_distance": {
                "astronomical": "0.2702675128",
                "lunar": "105.1340624792",
                "kilometers": "40431444.245077736",
                "miles": "25122934.4879393168"
            },
            "orbiting_body": "Earth"
        },
        {
            "close_approach_date": "2012-09-24",
            "close_approach_date_full": "2012-Sep-24 04:55",
            "epoch_date_close_approach": 1348462500000,
            "relative_velocity": {
                "kilometers_per_second": "5.2118961047",
                "kilometers_per_hour": "18762.8259769685",
                "miles_per_hour": "11658.4903966336"
            },
            "miss_distance": {
                "astronomical": "0.0565092211",
                "lunar": "21.9820870079",
                "kilometers": "8453659.111919057",
                "miles": "5252860.1937827066"
            },
            "orbiting_body": "Earth"
        },
        {
            "close_approach_date": "2015-09-04",
            "close_approach_date_full": "2015-Sep-04 07:45",
            "epoch_date_close_approach": 1441352700000,
            "relative_velocity": {
                "kilometers_per_second": "8.4698241408",
                "kilometers_per_hour": "30491.3669068006",
                "miles_per_hour": "18946.1496205062"
            },
            "miss_distance": {
                "astronomical": "0.271366626",
                "lunar": "105.561617514",
                "kilometers": "40595869.23868662",
                "miles": "25225103.441330556"
            },
            "orbiting_body": "Earth"
        },
        {
            "close_approach_date": "2074-04-24",
            "close_approach_date_full": "2074-Apr-24 19:29",
            "epoch_date_close_approach": 3291823740000,
            "relative_velocity": {
                "kilometers_per_second": "7.8689021105",
                "kilometers_per_hour": "28328.0475977523",
                "miles_per_hour": "17601.9471309478"
            },
            "miss_distance": {
                "astronomical": "0.4740574352",
                "lunar": "184.4083422928",
                "kilometers": "70917982.563583024",
                "miles": "44066390.9793087712"
            },
            "orbiting_body": "Earth"
        },
        {
            "close_approach_date": "2080-10-06",
            "close_approach_date_full": "2080-Oct-06 16:31",
            "epoch_date_close_approach": 3495457860000,
            "relative_velocity": {
                "kilometers_per_second": "10.722513909",
                "kilometers_per_hour": "38601.0500723276",
                "miles_per_hour": "23985.1913629971"
            },
            "miss_distance": {
                "astronomical": "0.2875057579",
                "lunar": "111.8397398231",
                "kilometers": "43010248.994575673",
                "miles": "26725329.4552353674"
            },
            "orbiting_body": "Earth"
        }
    ],
    "orbital_data": {
        "orbit_id": "10",
        "orbit_determination_date": "2017-04-06 08:48:51",
        "first_observation_date": "2012-09-23",
        "last_observation_date": "2012-10-16",
        "data_arc_in_days": 23,
        "observations_used": 41,
        "orbit_uncertainty": "8",
        "minimum_orbit_intersection": ".0565693",
        "jupiter_tisserand_invariant": "4.977",
        "epoch_osculation": "2456205.5",
        "eccentricity": ".1881758511802747",
        "semi_major_axis": "1.298331135696635",
        "inclination": "8.801196628474989",
        "ascending_node_longitude": "187.5175103588355",
        "orbital_period": "540.3518405873106",
        "perihelion_distance": "1.054016569123068",
        "perihelion_argument": "163.0480131061005",
        "aphelion_distance": "1.542645702270202",
        "perihelion_time": "2456183.728626530914",
        "mean_anomaly": "14.50479828171241",
        "mean_motion": ".6662325784043126",
        "equinox": "J2000",
        "orbit_class": {
            "orbit_class_type": "AMO",
            "orbit_class_description": "Near-Earth asteroid orbits similar to that of 1221 Amor",
            "orbit_class_range": "1.017 AU < q (perihelion) < 1.3 AU"
        }
    },
    "is_sentry_object": false
}